{
    "links": {
        "self": "http://www.neowsapp.com/rest/v1/neo/3840137?api_key=iIulBulltgU6a56xZRHN4H3l9WmuAYTsLGpBGhQ2"
    },
    "id": "3840137",
    "neo_reference_id": "3840137",
    "name": "(2019 FL)",
    "designation": "2019 FL",
    "nasa_jpl_url": "http://ssd.jpl.nasa.gov/sbdb.cgi?sstr=3840137",
    "absolute_magnitude_h": 24.2,
    "estimated_diameter": {
        "kilometers": {
            "estimated_diameter_min": 0.0384197891,
            "estimated_diameter_max": 0.0859092601
        },
        "meters": {
            "estimated_diameter_min": 38.4197891064,
            "estimated_diameter_max": 85.9092601232
        },
        "miles": {
            "estimated_diameter_min": 0.0238729428,
            "estimated_diameter_max": 0.0533815229
        },
        "feet": {
            "estimated_diameter_min": 126.0491808919,
            "estimated_diameter_max": 281.8545369825
        }
    },
    "is_potentially_hazardous_asteroid": false,
    "close_approach_data": [
        {
            "close_approach_date": "2019-03-22",
            "close_approach_date_full": "2019-Mar-22 07:25",
            "epoch_date_close_approach": 1553239500000,
            "relative_velocity": {
                "kilometers_per_second": "11.9378594248",
                "kilometers_per_hour": "42976.2939294287",
                "miles_per_hour": "26703.7977474275"
            },
            "miss_distance": {
                "astronomical": "0.0317363259",
                "lunar": "12.3454307751",
                "kilometers": "4747686.756265833",
                "miles": "2950075.7535131754"
            },
            "orbiting_body": "Earth"
        }
    ],
    "orbital_data": {
        "orbit_id": "8",
        "orbit_determination_date": "2019-04-12 07:30:32",
        "first_observation_date": "2019-03-23",
        "last_observation_date": "2019-03-30",
        "data_arc_in_days": 7,
        "observations_used": 146,
        "orbit_uncertainty": "7",
        "minimum_orbit_intersection": ".0266126",
        "jupiter_tisserand_invariant": "4.134",
        "epoch_osculation": "2459000.5",
        "eccentricity": ".3912691788220503",
        "semi_major_axis": "1.650268183073031",
        "inclination": "18.83500890460459",
        "ascending_node_longitude": "180.9344647285649",
        "orbital_period": "774.3373659089181",
        "perihelion_distance": "1.004569106245889",
        "perihelion_argument": "338.8090819227289",
        "aphelion_distance": "2.295967259900173",
        "perihelion_time": "2459321.295778690264",
        "mean_anomaly": "210.8576682297427",
        "mean_motion": ".4649136356443701",
        "equinox": "J2000",
        "orbit_class": {
            "orbit_class_type": "APO",
            "orbit_class_description": "Near-Earth asteroid orbits which cross the Earth’s orbit similar to that of 1862 Apollo",
            "orbit_class_range": "a (semi-major axis) > 1.0 AU; q (perihelion) < 1.017 AU"
        }
    },
    "is_sentry_object": false
}